[{"OBJECT_NAME":"STARLINK-36938","OBJECT_ID":"2026-044Z","EPOCH":"2026-03-20T12:00:00.999648","MEAN_MOTION":15.80827638,"ECCENTRICITY":0.00012609,"INCLINATION":97.2827,"RA_OF_ASC_NODE":40.2055,"ARG_OF_PERICENTER":102.6428,"MEAN_ANOMALY":269.187,"EPHEMERIS_TYPE":0,"CLASSIFICATION_TYPE":"U","NORAD_CAT_ID":68124,"ELEMENT_SET_NO":999,"REV_AT_EPOCH":313,"BSTAR":-4.603624e-5,"MEAN_MOTION_DOT":-8.955e-5,"MEAN_MOTION_DDOT":0},{"OBJECT_NAME":"STARLINK-36839","OBJECT_ID":"2026-044AA","EPOCH":"2026-03-20T12:00:00.999648","MEAN_MOTION":15.80857872,"ECCENTRICITY":0.00012833,"INCLINATION":97.2829,"RA_OF_ASC_NODE":40.2016,"ARG_OF_PERICENTER":82.1072,"MEAN_ANOMALY":281.1749,"EPHEMERIS_TYPE":0,"CLASSIFICATION_TYPE":"U","NORAD_CAT_ID":68125,"ELEMENT_SET_NO":999,"REV_AT_EPOCH":309,"BSTAR":-0.00050478864,"MEAN_MOTION_DOT":-0.00095961,"MEAN_MOTION_DDOT":0},{"OBJECT_NAME":"ECHOSTAR 25","OBJECT_ID":"2026-045A","EPOCH":"2026-03-19T02:28:15.624768","MEAN_MOTION":1.79782376,"ECCENTRICITY":0.47476863,"INCLINATION":9.9581,"RA_OF_ASC_NODE":67.2584,"ARG_OF_PERICENTER":180.7477,"MEAN_ANOMALY":178.3967,"EPHEMERIS_TYPE":0,"CLASSIFICATION_TYPE":"U","NORAD_CAT_ID":68126,"ELEMENT_SET_NO":999,"REV_AT_EPOCH":19,"BSTAR":0,"MEAN_MOTION_DOT":-4.7e-7,"MEAN_MOTION_DDOT":0},{"OBJECT_NAME":"ICOR SV","OBJECT_ID":"2026-046A","EPOCH":"2026-03-13T21:49:43.816224","MEAN_MOTION":15.82606913,"ECCENTRICITY":0.0140888,"INCLINATION":123.0797,"RA_OF_ASC_NODE":224.1306,"ARG_OF_PERICENTER":188.2572,"MEAN_ANOMALY":171.617,"EPHEMERIS_TYPE":0,"CLASSIFICATION_TYPE":"U","NORAD_CAT_ID":68127,"ELEMENT_SET_NO":999,"REV_AT_EPOCH":29,"BSTAR":0.0010434,"MEAN_MOTION_DOT":0.00482503,"MEAN_MOTION_DDOT":9.2133e-5},{"OBJECT_NAME":"FIREFLY ALPHA R/B","OBJECT_ID":"2026-046B","EPOCH":"2026-03-20T10:15:28.523808","MEAN_MOTION":15.56514524,"ECCENTRICITY":0.00145334,"INCLINATION":123.0929,"RA_OF_ASC_NODE":252.475,"ARG_OF_PERICENTER":0.7015,"MEAN_ANOMALY":359.4064,"EPHEMERIS_TYPE":0,"CLASSIFICATION_TYPE":"U","NORAD_CAT_ID":68128,"ELEMENT_SET_NO":999,"REV_AT_EPOCH":131,"BSTAR":0.00039089922,"MEAN_MOTION_DOT":0.00027902,"MEAN_MOTION_DDOT":0},{"OBJECT_NAME":"GUOWANG GROUP 20 OBJECT A","OBJECT_ID":"2026-047A","EPOCH":"2026-03-19T01:19:59.034432","MEAN_MOTION":14.05638332,"ECCENTRICITY":0.00088996,"INCLINATION":50.0054,"RA_OF_ASC_NODE":32.2608,"ARG_OF_PERICENTER":282.8383,"MEAN_ANOMALY":77.1528,"EPHEMERIS_TYPE":0,"CLASSIFICATION_TYPE":"U","NORAD_CAT_ID":68129,"ELEMENT_SET_NO":999,"REV_AT_EPOCH":88,"BSTAR":2.225374e-6,"MEAN_MOTION_DOT":-1.48e-6,"MEAN_MOTION_DDOT":0},{"OBJECT_NAME":"GUOWANG GROUP 20 OBJECT B","OBJECT_ID":"2026-047B","EPOCH":"2026-03-19T01:19:13.162080","MEAN_MOTION":14.05761022,"ECCENTRICITY":0.00075469,"INCLINATION":50.0044,"RA_OF_ASC_NODE":32.2582,"ARG_OF_PERICENTER":277.972,"MEAN_ANOMALY":82.0329,"EPHEMERIS_TYPE":0,"CLASSIFICATION_TYPE":"U","NORAD_CAT_ID":68130,"ELEMENT_SET_NO":999,"REV_AT_EPOCH":87,"BSTAR":2.531813e-6,"MEAN_MOTION_DOT":-1.48e-6,"MEAN_MOTION_DDOT":0},{"OBJECT_NAME":"GUOWANG GROUP 20 OBJECT C","OBJECT_ID":"2026-047C","EPOCH":"2026-03-19T14:57:50.348160","MEAN_MOTION":14.05810373,"ECCENTRICITY":0.00081141,"INCLINATION":50.0037,"RA_OF_ASC_NODE":29.9293,"ARG_OF_PERICENTER":287.016,"MEAN_ANOMALY":72.9856,"EPHEMERIS_TYPE":0,"CLASSIFICATION_TYPE":"U","NORAD_CAT_ID":68131,"ELEMENT_SET_NO":999,"REV_AT_EPOCH":96,"BSTAR":2.43655e-6,"MEAN_MOTION_DOT":-1.48e-6,"MEAN_MOTION_DDOT":0},{"OBJECT_NAME":"GUOWANG GROUP 20 OBJECT D","OBJECT_ID":"2026-047D","EPOCH":"2026-03-19T03:00:48.676032","MEAN_MOTION":14.05881519,"ECCENTRICITY":0.0008434,"INCLINATION":50.0078,"RA_OF_ASC_NODE":31.9684,"ARG_OF_PERICENTER":289.4802,"MEAN_ANOMALY":70.5192,"EPHEMERIS_TYPE":0,"CLASSIFICATION_TYPE":"U","NORAD_CAT_ID":68132,"ELEMENT_SET_NO":999,"REV_AT_EPOCH":88,"BSTAR":3.692038e-6,"MEAN_MOTION_DOT":-1.46e-6,"MEAN_MOTION_DDOT":0},{"OBJECT_NAME":"GUOWANG GROUP 20 OBJECT E","OBJECT_ID":"2026-047E","EPOCH":"2026-03-17T01:32:12.575616","MEAN_MOTION":14.05931996,"ECCENTRICITY":0.00068308,"INCLINATION":50.0041,"RA_OF_ASC_NODE":40.3867,"ARG_OF_PERICENTER":274.9069,"MEAN_ANOMALY":85.1056,"EPHEMERIS_TYPE":0,"CLASSIFICATION_TYPE":"U","NORAD_CAT_ID":68133,"ELEMENT_SET_NO":999,"REV_AT_EPOCH":60,"BSTAR":4.63008e-6,"MEAN_MOTION_DOT":-1.45e-6,"MEAN_MOTION_DDOT":0},{"OBJECT_NAME":"GUOWANG GROUP 20 OBJECT F","OBJECT_ID":"2026-047F","EPOCH":"2026-03-19T23:27:41.427648","MEAN_MOTION":14.06079851,"ECCENTRICITY":0.0006391,"INCLINATION":50.0091,"RA_OF_ASC_NODE":28.4795,"ARG_OF_PERICENTER":289.3722,"MEAN_ANOMALY":70.6492,"EPHEMERIS_TYPE":0,"CLASSIFICATION_TYPE":"U","NORAD_CAT_ID":68134,"ELEMENT_SET_NO":999,"REV_AT_EPOCH":100,"BSTAR":2.0813e-6,"MEAN_MOTION_DOT":-1.49e-6,"MEAN_MOTION_DDOT":0},{"OBJECT_NAME":"GUOWANG GROUP 20 OBJECT G","OBJECT_ID":"2026-047G","EPOCH":"2026-03-20T06:17:49.607808","MEAN_MOTION":14.05440764,"ECCENTRICITY":0.00061615,"INCLINATION":49.9982,"RA_OF_ASC_NODE":27.3328,"ARG_OF_PERICENTER":292.8288,"MEAN_ANOMALY":67.1966,"EPHEMERIS_TYPE":0,"CLASSIFICATION_TYPE":"U","NORAD_CAT_ID":68135,"ELEMENT_SET_NO":999,"REV_AT_EPOCH":105,"BSTAR":9.8307887e-5,"MEAN_MOTION_DOT":8.0e-8,"MEAN_MOTION_DDOT":0},{"OBJECT_NAME":"GUOWANG GROUP 20 OBJECT H","OBJECT_ID":"2026-047H","EPOCH":"2026-03-18T23:34:26.844960","MEAN_MOTION":14.06144171,"ECCENTRICITY":0.00075099,"INCLINATION":50.0089,"RA_OF_ASC_NODE":32.5476,"ARG_OF_PERICENTER":297.2561,"MEAN_ANOMALY":62.758,"EPHEMERIS_TYPE":0,"CLASSIFICATION_TYPE":"U","NORAD_CAT_ID":68136,"ELEMENT_SET_NO":999,"REV_AT_EPOCH":86,"BSTAR":4.138608e-6,"MEAN_MOTION_DOT":-1.46e-6,"MEAN_MOTION_DDOT":0},{"OBJECT_NAME":"GUOWANG GROUP 20 OBJECT J","OBJECT_ID":"2026-047J","EPOCH":"2026-03-18T23:33:39.242880","MEAN_MOTION":14.06269806,"ECCENTRICITY":0.00059129,"INCLINATION":50.0089,"RA_OF_ASC_NODE":32.5436,"ARG_OF_PERICENTER":296.0035,"MEAN_ANOMALY":64.0262,"EPHEMERIS_TYPE":0,"CLASSIFICATION_TYPE":"U","NORAD_CAT_ID":68137,"ELEMENT_SET_NO":999,"REV_AT_EPOCH":87,"BSTAR":4.840452e-6,"MEAN_MOTION_DOT":-1.44e-6,"MEAN_MOTION_DDOT":0},{"OBJECT_NAME":"CZ-8A R/B","OBJECT_ID":"2026-047K","EPOCH":"2026-03-20T14:00:54.130176","MEAN_MOTION":14.1222878,"ECCENTRICITY":0.00447436,"INCLINATION":49.9542,"RA_OF_ASC_NODE":25.6192,"ARG_OF_PERICENTER":175.8234,"MEAN_ANOMALY":184.3055,"EPHEMERIS_TYPE":0,"CLASSIFICATION_TYPE":"U","NORAD_CAT_ID":68138,"ELEMENT_SET_NO":999,"REV_AT_EPOCH":109,"BSTAR":4.6290035e-5,"MEAN_MOTION_DOT":-6.8e-7,"MEAN_MOTION_DDOT":0},{"OBJECT_NAME":"SHIYAN-30 03","OBJECT_ID":"2026-048A","EPOCH":"2026-03-20T16:21:34.153056","MEAN_MOTION":14.91682688,"ECCENTRICITY":0.0003961,"INCLINATION":35,"RA_OF_ASC_NODE":78.1694,"ARG_OF_PERICENTER":297.0292,"MEAN_ANOMALY":63.0008,"EPHEMERIS_TYPE":0,"CLASSIFICATION_TYPE":"U","NORAD_CAT_ID":68139,"ELEMENT_SET_NO":999,"REV_AT_EPOCH":114,"BSTAR":0.00024335,"MEAN_MOTION_DOT":2.467e-5,"MEAN_MOTION_DDOT":0}]
